[
    {
        "Altitude(m)": 607897.6064815407,
        "Argument of Periapsis(deg)": 0.0,
        "Eccentricity": 0.0,
        "Inclination(deg)": 60.0,
        "Latitude(deg)": -14.292888547877855,
        "Longitude(deg)": 116.6187483947453,
        "Mean Anomaly(deg)": -16.363600000000037,
        "RAAN(deg)": 225.0,
        "Satellite Name": "Test1 1011",
        "Satellite Number": 1011,
        "Semi-Major Axis(m)": 6980739.136638005,
        "Time(s)": 0
    },
    {
        "Altitude(m)": 607750.8080708211,
        "Argument of Periapsis(deg)": 0.00010418945913296404,
        "Eccentricity": 0.0,
        "Inclination(deg)": 60.0,
        "Latitude(deg)": -13.758730079831178,
        "Longitude(deg)": 116.90581752685446,
        "Mean Anomaly(deg)": -15.743493854538185,
        "RAAN(deg)": 224.99957995086024,
        "Satellite Name": "Test1 1011",
        "Satellite Number": 1011,
        "Semi-Major Axis(m)": 6980739.136638005,
        "Time(s)": 10
    }
]